INMARSAT 4-F2 (SOUTHPA*)
1 28899U 05044A   26119.73933536 -.00000260  00000+0  00000+0 0  9994
2 28899   5.0344  43.7588 0002905 356.3547 227.1970  1.00271910 75032
GSAT-8 (GAGAN/PRN 127)  
1 37605U 11022A   26119.85609777  .00000086  00000+0  00000+0 0  9997
2 37605   2.0078  82.3844 0004442 229.0777 269.6016  1.00271352 52735
LUCH 5A (SDCM/PRN 140)  
1 37951U 11074B   26119.59305076 -.00000047  00000+0  00000+0 0  9992
2 37951   8.6332  74.5081 0002797 310.5307 212.9489  1.00273586 52563
SES-5 (EGNOS/PRN 136)   
1 38652U 12036A   26119.56092718  .00000033  00000+0  00000+0 0  9997
2 38652   0.0564 302.2379 0002212  94.3379  27.8577  1.00272262 43969
GSAT-10 (GAGAN/PRN 128) 
1 38779U 12051B   26119.79031749 -.00000164  00000+0  00000+0 0  9992
2 38779   0.0156 264.0421 0007278 178.5625 142.6030  1.00270024 49617
LUCH 5B (SDCM/PRN 125)  
1 38977U 12061A   26119.53138215 -.00000137  00000+0  00000+0 0  9991
2 38977  10.3819  50.3585 0001386 215.8325 126.3226  1.00271759 49117
ASTRA 5B (EGNOS/PRN 123)
1 39617U 14011B   26119.84985773  .00000137  00000+0  00000+0 0  9992
2 39617   0.0622 311.8392 0002679  69.5880 165.8069  1.00271510 44184
LUCH 5V (SDCM/PRN 141)  
1 39727U 14023A   26119.79265749 -.00000267  00000+0  00000+0 0  9990
2 39727   5.0166  70.2215 0002498 343.9661 183.6809  1.00271202 43872
GSAT-15 (GAGAN/PRN 139) 
1 41028U 15065A   26119.79239750 -.00000258  00000+0  00000+0 0  9997
2 41028   0.0612 256.2793 0003884 149.9288 190.3127  1.00271323 38311
EUTELSAT 117 WEST B (W*)
1 41589U 16038B   26119.60813082 -.00000013  00000+0  00000+0 0  9995
2 41589   0.0115 104.2021 0000114   9.7527 205.5589  1.00272964 36174
SES-15 (WAAS/PRN 133)   
1 42709U 17026A   26119.39178088  .00000058  00000+0  00000+0 0  9992
2 42709   0.0233 327.1359 0000770  56.7658 205.3328  1.00271771  6941
QZS-2 (QZSS/PRN 194)    
1 42738U 17028A   26116.23428738 -.00000266  00000+0  00000+0 0  9998
2 42738  39.5095 243.9120 0740318 270.8047 281.9812  1.00247520  7109
QZS-3 (QZSS/PRN 199)    
1 42917U 17048A   26119.79907086 -.00000348  00000+0  00000+0 0  9992
2 42917   0.0536 172.3199 0001431 222.1850 237.9341  1.00269778 31777
QZS-4 (QZSS/PRN 195)    
1 42965U 17062A   26119.48926316 -.00000347  00000+0  00000+0 0  9993
2 42965  40.1365 344.1034 0745832 270.9475 278.4802  1.00265578 31312
BEIDOU-3 G1 (PRN 130)   
1 43683U 18085A   26119.80548422 -.00000107  00000+0  00000+0 0  9995
2 43683   2.9537  98.6532 0007175 334.3628 234.6301  1.00273083 27578
EUTELSAT 5 WEST B (EGN*)
1 44624U 19067A   26119.84422439 -.00000042  00000+0  00000+0 0  9993
2 44624   0.0714  17.2978 0003304  23.9014 115.5131  1.00272168 23950
BEIDOU-3 G2 (PRN 144)   
1 45344U 20017A   26119.78971082 -.00000140  00000+0  00000+0 0  9995
2 45344   2.7690  46.5879 0002738 352.5395 182.9541  1.00271583 22772
BEIDOU-3 G3 (PRN 143)   
1 45807U 20040A   26119.79577751 -.00000353  00000+0  00000+0 0  9997
2 45807   2.3306  67.3126 0003943 332.6731 214.7680  1.00269242 21589
GALAXY 30 (WAAS/PRN 135)
1 46114U 20056C   26119.60648416  .00000036  00000+0  00000+0 0  9990
2 46114   0.0205 264.1221 0002522 147.6046 259.1711  1.00272922 20803
QZS-1R (QZSS/PRN 196)   
1 49336U 21096A   26119.23183676 -.00000247  00000+0  00000+0 0  9990
2 49336  37.3643  80.3031 0751645 270.8921  85.1494  1.00272567 16520
QZS-6 (QZSS/PRN 200)    
1 62876U 25023A   26119.79179081  .00000000  00000+0  00000+0 0  9990
2 62876   0.0195  61.3109 0002829 349.2670 182.7116  1.00271145  4470
